CCSDS_OMM_VERS = 2.0
CREATION_DATE  = 
ORIGINATOR     = 

OBJECT_NAME    = KUIPER-00177
OBJECT_ID      = 2026-030C
CENTER_NAME    = EARTH
REF_FRAME      = TEME
TIME_SYSTEM    = UTC
MEAN_ELEMENT_THEORY = SGP/SGP4

EPOCH          = 2026-02-23T02:40:51.629088
MEAN_MOTION    = 15.35813190
ECCENTRICITY   = .00006356
INCLINATION    = 51.8838
RA_OF_ASC_NODE = 289.3627
ARG_OF_PERICENTER = 75.3527
MEAN_ANOMALY   = 284.7530

EPHEMERIS_TYPE = 0
CLASSIFICATION_TYPE = U
NORAD_CAT_ID   = 67766
ELEMENT_SET_NO = 999
REV_AT_EPOCH   = 285
BSTAR          = .68180637E-3
MEAN_MOTION_DOT = .23815E-3
MEAN_MOTION_DDOT = 0

CCSDS_OMM_VERS = 2.0
CREATION_DATE  = 
ORIGINATOR     = 

OBJECT_NAME    = KUIPER-00178
OBJECT_ID      = 2026-030D
CENTER_NAME    = EARTH
REF_FRAME      = TEME
TIME_SYSTEM    = UTC
MEAN_ELEMENT_THEORY = SGP/SGP4

EPOCH          = 2026-02-23T02:51:22.883904
MEAN_MOTION    = 15.34841179
ECCENTRICITY   = .00053739
INCLINATION    = 51.8838
RA_OF_ASC_NODE = 289.4108
ARG_OF_PERICENTER = 7.5459
MEAN_ANOMALY   = 352.5607

EPHEMERIS_TYPE = 0
CLASSIFICATION_TYPE = U
NORAD_CAT_ID   = 67767
ELEMENT_SET_NO = 999
REV_AT_EPOCH   = 285
BSTAR          = .9559031E-3
MEAN_MOTION_DOT = .32558E-3
MEAN_MOTION_DDOT = 0

CCSDS_OMM_VERS = 2.0
CREATION_DATE  = 
ORIGINATOR     = 

OBJECT_NAME    = KUIPER-00180
OBJECT_ID      = 2026-030E
CENTER_NAME    = EARTH
REF_FRAME      = TEME
TIME_SYSTEM    = UTC
MEAN_ELEMENT_THEORY = SGP/SGP4

EPOCH          = 2026-02-23T04:43:42.822624
MEAN_MOTION    = 15.32808678
ECCENTRICITY   = .00148382
INCLINATION    = 51.8808
RA_OF_ASC_NODE = 289.1758
ARG_OF_PERICENTER = 24.9020
MEAN_ANOMALY   = 335.2677

EPHEMERIS_TYPE = 0
CLASSIFICATION_TYPE = U
NORAD_CAT_ID   = 67768
ELEMENT_SET_NO = 999
REV_AT_EPOCH   = 286
BSTAR          = .70650962E-3
MEAN_MOTION_DOT = .22487E-3
MEAN_MOTION_DDOT = 0

CCSDS_OMM_VERS = 2.0
CREATION_DATE  = 
ORIGINATOR     = 

OBJECT_NAME    = KUIPER-00197
OBJECT_ID      = 2026-030F
CENTER_NAME    = EARTH
REF_FRAME      = TEME
TIME_SYSTEM    = UTC
MEAN_ELEMENT_THEORY = SGP/SGP4

EPOCH          = 2026-02-23T02:42:46.999872
MEAN_MOTION    = 15.35706834
ECCENTRICITY   = .00013647
INCLINATION    = 51.8837
RA_OF_ASC_NODE = 289.3718
ARG_OF_PERICENTER = 73.3245
MEAN_ANOMALY   = 286.7891

EPHEMERIS_TYPE = 0
CLASSIFICATION_TYPE = U
NORAD_CAT_ID   = 67769
ELEMENT_SET_NO = 999
REV_AT_EPOCH   = 285
BSTAR          = .10972699E-2
MEAN_MOTION_DOT = .38504E-3
MEAN_MOTION_DDOT = 0

CCSDS_OMM_VERS = 2.0
CREATION_DATE  = 
ORIGINATOR     = 

OBJECT_NAME    = KUIPER-00198
OBJECT_ID      = 2026-030G
CENTER_NAME    = EARTH
REF_FRAME      = TEME
TIME_SYSTEM    = UTC
MEAN_ELEMENT_THEORY = SGP/SGP4

EPOCH          = 2026-02-23T04:20:05.690688
MEAN_MOTION    = 15.35352989
ECCENTRICITY   = .00025102
INCLINATION    = 51.8816
RA_OF_ASC_NODE = 289.0717
ARG_OF_PERICENTER = 21.8621
MEAN_ANOMALY   = 338.2472

EPHEMERIS_TYPE = 0
CLASSIFICATION_TYPE = U
NORAD_CAT_ID   = 67770
ELEMENT_SET_NO = 999
REV_AT_EPOCH   = 286
BSTAR          = .75794442E-3
MEAN_MOTION_DOT = .26135E-3
MEAN_MOTION_DDOT = 0

CCSDS_OMM_VERS = 2.0
CREATION_DATE  = 
ORIGINATOR     = 

OBJECT_NAME    = KUIPER-00199
OBJECT_ID      = 2026-030H
CENTER_NAME    = EARTH
REF_FRAME      = TEME
TIME_SYSTEM    = UTC
MEAN_ELEMENT_THEORY = SGP/SGP4

EPOCH          = 2026-02-23T03:01:55.586784
MEAN_MOTION    = 15.33742369
ECCENTRICITY   = .00101563
INCLINATION    = 51.8813
RA_OF_ASC_NODE = 289.4544
ARG_OF_PERICENTER = 17.9574
MEAN_ANOMALY   = 342.1769

EPHEMERIS_TYPE = 0
CLASSIFICATION_TYPE = U
NORAD_CAT_ID   = 67771
ELEMENT_SET_NO = 999
REV_AT_EPOCH   = 285
BSTAR          = .75279874E-3
MEAN_MOTION_DOT = .24674E-3
MEAN_MOTION_DDOT = 0

CCSDS_OMM_VERS = 2.0
CREATION_DATE  = 
ORIGINATOR     = 

OBJECT_NAME    = KUIPER-00200
OBJECT_ID      = 2026-030J
CENTER_NAME    = EARTH
REF_FRAME      = TEME
TIME_SYSTEM    = UTC
MEAN_ELEMENT_THEORY = SGP/SGP4

EPOCH          = 2026-02-23T04:10:34.551264
MEAN_MOTION    = 15.36319533
ECCENTRICITY   = .00023172
INCLINATION    = 51.8819
RA_OF_ASC_NODE = 289.0299
ARG_OF_PERICENTER = 156.4864
MEAN_ANOMALY   = 203.6229

EPHEMERIS_TYPE = 0
CLASSIFICATION_TYPE = U
NORAD_CAT_ID   = 67772
ELEMENT_SET_NO = 999
REV_AT_EPOCH   = 286
BSTAR          = .76832018E-3
MEAN_MOTION_DOT = .27344E-3
MEAN_MOTION_DDOT = 0

CCSDS_OMM_VERS = 2.0
CREATION_DATE  = 
ORIGINATOR     = 

OBJECT_NAME    = KUIPER-00203
OBJECT_ID      = 2026-030K
CENTER_NAME    = EARTH
REF_FRAME      = TEME
TIME_SYSTEM    = UTC
MEAN_ELEMENT_THEORY = SGP/SGP4

EPOCH          = 2026-02-23T03:04:40.055232
MEAN_MOTION    = 15.33457398
ECCENTRICITY   = .00122691
INCLINATION    = 51.8804
RA_OF_ASC_NODE = 289.4645
ARG_OF_PERICENTER = 19.7843
MEAN_ANOMALY   = 340.3616

EPHEMERIS_TYPE = 0
CLASSIFICATION_TYPE = U
NORAD_CAT_ID   = 67773
ELEMENT_SET_NO = 999
REV_AT_EPOCH   = 285
BSTAR          = .91173169E-3
MEAN_MOTION_DOT = .29734E-3
MEAN_MOTION_DDOT = 0

CCSDS_OMM_VERS = 2.0
CREATION_DATE  = 
ORIGINATOR     = 

OBJECT_NAME    = KUIPER-00205
OBJECT_ID      = 2026-030L
CENTER_NAME    = EARTH
REF_FRAME      = TEME
TIME_SYSTEM    = UTC
MEAN_ELEMENT_THEORY = SGP/SGP4

EPOCH          = 2026-02-23T02:43:40.938528
MEAN_MOTION    = 15.35680811
ECCENTRICITY   = .00017293
INCLINATION    = 51.8817
RA_OF_ASC_NODE = 289.3735
ARG_OF_PERICENTER = 350.6538
MEAN_ANOMALY   = 9.4416

EPHEMERIS_TYPE = 0
CLASSIFICATION_TYPE = U
NORAD_CAT_ID   = 67774
ELEMENT_SET_NO = 999
REV_AT_EPOCH   = 285
BSTAR          = .85584001E-3
MEAN_MOTION_DOT = .29888E-3
MEAN_MOTION_DDOT = 0

CCSDS_OMM_VERS = 2.0
CREATION_DATE  = 
ORIGINATOR     = 

OBJECT_NAME    = KUIPER-00208
OBJECT_ID      = 2026-030M
CENTER_NAME    = EARTH
REF_FRAME      = TEME
TIME_SYSTEM    = UTC
MEAN_ELEMENT_THEORY = SGP/SGP4

EPOCH          = 2026-02-23T03:09:19.264608
MEAN_MOTION    = 15.32836732
ECCENTRICITY   = .00150562
INCLINATION    = 51.8840
RA_OF_ASC_NODE = 289.4924
ARG_OF_PERICENTER = 20.9821
MEAN_ANOMALY   = 339.1778

EPHEMERIS_TYPE = 0
CLASSIFICATION_TYPE = U
NORAD_CAT_ID   = 67775
ELEMENT_SET_NO = 999
REV_AT_EPOCH   = 285
BSTAR          = .39721736E-3
MEAN_MOTION_DOT = .12471E-3
MEAN_MOTION_DDOT = 0

CCSDS_OMM_VERS = 2.0
CREATION_DATE  = 
ORIGINATOR     = 

OBJECT_NAME    = KUIPER-00209
OBJECT_ID      = 2026-030N
CENTER_NAME    = EARTH
REF_FRAME      = TEME
TIME_SYSTEM    = UTC
MEAN_ELEMENT_THEORY = SGP/SGP4

EPOCH          = 2026-02-23T04:41:50.188992
MEAN_MOTION    = 15.32819637
ECCENTRICITY   = .00127359
INCLINATION    = 51.8829
RA_OF_ASC_NODE = 289.1717
ARG_OF_PERICENTER = 21.0536
MEAN_ANOMALY   = 339.0971

EPHEMERIS_TYPE = 0
CLASSIFICATION_TYPE = U
NORAD_CAT_ID   = 67776
ELEMENT_SET_NO = 999
REV_AT_EPOCH   = 286
BSTAR          = .87818763E-3
MEAN_MOTION_DOT = .28049E-3
MEAN_MOTION_DDOT = 0

CCSDS_OMM_VERS = 2.0
CREATION_DATE  = 
ORIGINATOR     = 

OBJECT_NAME    = KUIPER-00213
OBJECT_ID      = 2026-030P
CENTER_NAME    = EARTH
REF_FRAME      = TEME
TIME_SYSTEM    = UTC
MEAN_ELEMENT_THEORY = SGP/SGP4

EPOCH          = 2026-02-23T03:08:02.406624
MEAN_MOTION    = 15.32873011
ECCENTRICITY   = .00142398
INCLINATION    = 51.8811
RA_OF_ASC_NODE = 289.4812
ARG_OF_PERICENTER = 20.1852
MEAN_ANOMALY   = 339.9693

EPHEMERIS_TYPE = 0
CLASSIFICATION_TYPE = U
NORAD_CAT_ID   = 67777
ELEMENT_SET_NO = 999
REV_AT_EPOCH   = 285
BSTAR          = .764425E-3
MEAN_MOTION_DOT = .24411E-3
MEAN_MOTION_DDOT = 0

