KUIPER-00177            
1 67766U 26030C   26054.11170867  .00023815  00000+0  68181-3 0  9996
2 67766  51.8838 289.3627 0000635  75.3527 284.7530 15.35813190  2857
KUIPER-00178            
1 67767U 26030D   26054.11901486  .00032558  00000+0  95590-3 0  9994
2 67767  51.8838 289.4108 0005373   7.5459 352.5607 15.34841179  2854
KUIPER-00180            
1 67768U 26030E   26054.19702341  .00022487  00000+0  70651-3 0  9993
2 67768  51.8808 289.1758 0014838  24.9020 335.2677 15.32808678  2864
KUIPER-00197            
1 67769U 26030F   26054.11304398  .00038504  00000+0  10973-2 0  9993
2 67769  51.8837 289.3718 0001364  73.3245 286.7891 15.35706834  2853
KUIPER-00198            
1 67770U 26030G   26054.18062142  .00026135  00000+0  75794-3 0  9990
2 67770  51.8816 289.0717 0002510  21.8621 338.2472 15.35352989  2865
KUIPER-00199            
1 67771U 26030H   26054.12633781  .00024674  00000+0  75280-3 0  9994
2 67771  51.8813 289.4544 0010156  17.9574 342.1769 15.33742369  2858
KUIPER-00200            
1 67772U 26030J   26054.17401101  .00027344  00000+0  76832-3 0  9990
2 67772  51.8819 289.0299 0002317 156.4864 203.6229 15.36319533  2868
KUIPER-00203            
1 67773U 26030K   26054.12824138  .00029734  00000+0  91173-3 0  9995
2 67773  51.8804 289.4645 0012269  19.7843 340.3616 15.33457398  2854
KUIPER-00205            
1 67774U 26030L   26054.11366827  .00029888  00000+0  85584-3 0  9990
2 67774  51.8817 289.3735 0001729 350.6538   9.4416 15.35680811  2856
KUIPER-00208            
1 67775U 26030M   26054.13147297  .00012471  00000+0  39722-3 0  9994
2 67775  51.8840 289.4924 0015056  20.9821 339.1778 15.32836732  2850
KUIPER-00209            
1 67776U 26030N   26054.19571978  .00028049  00000+0  87819-3 0  9996
2 67776  51.8829 289.1717 0012735  21.0536 339.0971 15.32819637  2861
KUIPER-00213            
1 67777U 26030P   26054.13058341  .00024411  00000+0  76443-3 0  9995
2 67777  51.8811 289.4812 0014239  20.1852 339.9693 15.32873011  2859
